CCSDS_OMM_VERS = 2.0
CREATION_DATE  = 
ORIGINATOR     = 

OBJECT_NAME    = UNKNOWN
OBJECT_ID      = 
CENTER_NAME    = EARTH
REF_FRAME      = TEME
TIME_SYSTEM    = UTC
MEAN_ELEMENT_THEORY = SGP/SGP4

EPOCH          = 2025-11-15T21:19:45.204960
MEAN_MOTION    = 12.25576182
ECCENTRICITY   = .0474273
INCLINATION    = 82.7609
RA_OF_ASC_NODE = 189.8916
ARG_OF_PERICENTER = 94.9500
MEAN_ANOMALY   = 270.5870

EPHEMERIS_TYPE = 0
CLASSIFICATION_TYPE = U
NORAD_CAT_ID   = 270282
ELEMENT_SET_NO = 999
REV_AT_EPOCH   = 25441
BSTAR          = .53399993E-2
MEAN_MOTION_DOT = .868E-5
MEAN_MOTION_DDOT = 0

CCSDS_OMM_VERS = 2.0
CREATION_DATE  = 
ORIGINATOR     = 

OBJECT_NAME    = UNKNOWN
OBJECT_ID      = 
CENTER_NAME    = EARTH
REF_FRAME      = TEME
TIME_SYSTEM    = UTC
MEAN_ELEMENT_THEORY = SGP/SGP4

EPOCH          = 2025-12-08T08:58:39.463968
MEAN_MOTION    = 12.95424366
ECCENTRICITY   = .01775863
INCLINATION    = 82.7286
RA_OF_ASC_NODE = 23.2824
ARG_OF_PERICENTER = 258.7653
MEAN_ANOMALY   = 99.3453

EPHEMERIS_TYPE = 0
CLASSIFICATION_TYPE = U
NORAD_CAT_ID   = 270284
ELEMENT_SET_NO = 999
REV_AT_EPOCH   = 26670
BSTAR          = -.2752974E-2
MEAN_MOTION_DOT = -.823E-5
MEAN_MOTION_DDOT = 0

CCSDS_OMM_VERS = 2.0
CREATION_DATE  = 
ORIGINATOR     = 

OBJECT_NAME    = UNKNOWN
OBJECT_ID      = 
CENTER_NAME    = EARTH
REF_FRAME      = TEME
TIME_SYSTEM    = UTC
MEAN_ELEMENT_THEORY = SGP/SGP4

EPOCH          = 2025-11-29T06:28:36.394752
MEAN_MOTION    = 12.31066396
ECCENTRICITY   = .01276656
INCLINATION    = 82.4610
RA_OF_ASC_NODE = 342.4749
ARG_OF_PERICENTER = 41.6643
MEAN_ANOMALY   = 319.4069

EPHEMERIS_TYPE = 0
CLASSIFICATION_TYPE = U
NORAD_CAT_ID   = 270287
ELEMENT_SET_NO = 999
REV_AT_EPOCH   = 1291
BSTAR          = .40942628E-1
MEAN_MOTION_DOT = .5015E-4
MEAN_MOTION_DDOT = 0

CCSDS_OMM_VERS = 2.0
CREATION_DATE  = 
ORIGINATOR     = 

OBJECT_NAME    = UNKNOWN
OBJECT_ID      = 
CENTER_NAME    = EARTH
REF_FRAME      = TEME
TIME_SYSTEM    = UTC
MEAN_ELEMENT_THEORY = SGP/SGP4

EPOCH          = 2025-12-03T19:12:30.936384
MEAN_MOTION    = 12.95761368
ECCENTRICITY   = .00293658
INCLINATION    = 90.2373
RA_OF_ASC_NODE = 1.9126
ARG_OF_PERICENTER = 281.0627
MEAN_ANOMALY   = 78.7191

EPHEMERIS_TYPE = 0
CLASSIFICATION_TYPE = U
NORAD_CAT_ID   = 270288
ELEMENT_SET_NO = 999
REV_AT_EPOCH   = 26896
BSTAR          = -.45403019E-3
MEAN_MOTION_DOT = -.122E-5
MEAN_MOTION_DDOT = 0

CCSDS_OMM_VERS = 2.0
CREATION_DATE  = 
ORIGINATOR     = 

OBJECT_NAME    = UNKNOWN
OBJECT_ID      = 
CENTER_NAME    = EARTH
REF_FRAME      = TEME
TIME_SYSTEM    = UTC
MEAN_ELEMENT_THEORY = SGP/SGP4

EPOCH          = 2025-11-10T15:53:49.192224
MEAN_MOTION    = 12.50038553
ECCENTRICITY   = .00233325
INCLINATION    = 73.6010
RA_OF_ASC_NODE = 105.6937
ARG_OF_PERICENTER = 350.1588
MEAN_ANOMALY   = 9.9000

EPHEMERIS_TYPE = 0
CLASSIFICATION_TYPE = U
NORAD_CAT_ID   = 270292
ELEMENT_SET_NO = 999
REV_AT_EPOCH   = 27173
BSTAR          = .19559195E-2
MEAN_MOTION_DOT = .28E-5
MEAN_MOTION_DDOT = 0

CCSDS_OMM_VERS = 2.0
CREATION_DATE  = 
ORIGINATOR     = 

OBJECT_NAME    = UNKNOWN
OBJECT_ID      = 
CENTER_NAME    = EARTH
REF_FRAME      = TEME
TIME_SYSTEM    = UTC
MEAN_ELEMENT_THEORY = SGP/SGP4

EPOCH          = 2025-12-08T17:25:07.411008
MEAN_MOTION    = 14.54609851
ECCENTRICITY   = .00059897
INCLINATION    = 98.6708
RA_OF_ASC_NODE = 142.5055
ARG_OF_PERICENTER = 332.4341
MEAN_ANOMALY   = 27.6536

EPHEMERIS_TYPE = 0
CLASSIFICATION_TYPE = U
NORAD_CAT_ID   = 270293
ELEMENT_SET_NO = 999
REV_AT_EPOCH   = 31917
BSTAR          = .90400394E-3
MEAN_MOTION_DOT = .3814E-4
MEAN_MOTION_DDOT = 0

CCSDS_OMM_VERS = 2.0
CREATION_DATE  = 
ORIGINATOR     = 

OBJECT_NAME    = UNKNOWN
OBJECT_ID      = 
CENTER_NAME    = EARTH
REF_FRAME      = TEME
TIME_SYSTEM    = UTC
MEAN_ELEMENT_THEORY = SGP/SGP4

EPOCH          = 2025-12-02T00:46:55.667136
MEAN_MOTION    = 14.30325048
ECCENTRICITY   = .00753405
INCLINATION    = 99.1639
RA_OF_ASC_NODE = 258.9897
ARG_OF_PERICENTER = 178.4492
MEAN_ANOMALY   = 181.6936

EPHEMERIS_TYPE = 0
CLASSIFICATION_TYPE = U
NORAD_CAT_ID   = 270294
ELEMENT_SET_NO = 999
REV_AT_EPOCH   = 31280
BSTAR          = .49350094E-3
MEAN_MOTION_DOT = .1273E-4
MEAN_MOTION_DDOT = 0

CCSDS_OMM_VERS = 2.0
CREATION_DATE  = 
ORIGINATOR     = 

OBJECT_NAME    = UNKNOWN
OBJECT_ID      = 
CENTER_NAME    = EARTH
REF_FRAME      = TEME
TIME_SYSTEM    = UTC
MEAN_ELEMENT_THEORY = SGP/SGP4

EPOCH          = 2025-12-07T15:45:55.931904
MEAN_MOTION    = 14.70666816
ECCENTRICITY   = .00999254
INCLINATION    = 97.7307
RA_OF_ASC_NODE = 307.0480
ARG_OF_PERICENTER = 88.2459
MEAN_ANOMALY   = 273.0191

EPHEMERIS_TYPE = 0
CLASSIFICATION_TYPE = U
NORAD_CAT_ID   = 270295
ELEMENT_SET_NO = 999
REV_AT_EPOCH   = 8828
BSTAR          = .35046526E-2
MEAN_MOTION_DOT = .23075E-3
MEAN_MOTION_DDOT = 0

CCSDS_OMM_VERS = 2.0
CREATION_DATE  = 
ORIGINATOR     = 

OBJECT_NAME    = UNKNOWN
OBJECT_ID      = 
CENTER_NAME    = EARTH
REF_FRAME      = TEME
TIME_SYSTEM    = UTC
MEAN_ELEMENT_THEORY = SGP/SGP4

EPOCH          = 2025-12-06T07:32:58.133472
MEAN_MOTION    = 12.97988521
ECCENTRICITY   = .00293743
INCLINATION    = 90.2367
RA_OF_ASC_NODE = 2.7252
ARG_OF_PERICENTER = 162.8629
MEAN_ANOMALY   = 197.3491

EPHEMERIS_TYPE = 0
CLASSIFICATION_TYPE = U
NORAD_CAT_ID   = 270296
ELEMENT_SET_NO = 999
REV_AT_EPOCH   = 28451
BSTAR          = .4431236E-3
MEAN_MOTION_DOT = .137E-5
MEAN_MOTION_DDOT = 0

CCSDS_OMM_VERS = 2.0
CREATION_DATE  = 
ORIGINATOR     = 

OBJECT_NAME    = UNKNOWN
OBJECT_ID      = 
CENTER_NAME    = EARTH
REF_FRAME      = TEME
TIME_SYSTEM    = UTC
MEAN_ELEMENT_THEORY = SGP/SGP4

EPOCH          = 2025-12-08T09:35:16.240128
MEAN_MOTION    = 12.99416839
ECCENTRICITY   = .00421362
INCLINATION    = 90.2669
RA_OF_ASC_NODE = 18.7117
ARG_OF_PERICENTER = 82.6136
MEAN_ANOMALY   = 277.9771

EPHEMERIS_TYPE = 0
CLASSIFICATION_TYPE = U
NORAD_CAT_ID   = 270297
ELEMENT_SET_NO = 999
REV_AT_EPOCH   = 28494
BSTAR          = .31655347E-2
MEAN_MOTION_DOT = .956E-5
MEAN_MOTION_DDOT = 0

CCSDS_OMM_VERS = 2.0
CREATION_DATE  = 
ORIGINATOR     = 

OBJECT_NAME    = UNKNOWN
OBJECT_ID      = 
CENTER_NAME    = EARTH
REF_FRAME      = TEME
TIME_SYSTEM    = UTC
MEAN_ELEMENT_THEORY = SGP/SGP4

EPOCH          = 2025-12-08T03:02:53.301984
MEAN_MOTION    = 2.07899271
ECCENTRICITY   = .7362445
INCLINATION    = 60.0612
RA_OF_ASC_NODE = 216.6489
ARG_OF_PERICENTER = 74.1748
MEAN_ANOMALY   = 350.0812

EPHEMERIS_TYPE = 0
CLASSIFICATION_TYPE = U
NORAD_CAT_ID   = 270298
ELEMENT_SET_NO = 999
REV_AT_EPOCH   = 1156
BSTAR          = .97198218E-2
MEAN_MOTION_DOT = .1328E-4
MEAN_MOTION_DDOT = 0

CCSDS_OMM_VERS = 2.0
CREATION_DATE  = 
ORIGINATOR     = 

OBJECT_NAME    = UNKNOWN
OBJECT_ID      = 
CENTER_NAME    = EARTH
REF_FRAME      = TEME
TIME_SYSTEM    = UTC
MEAN_ELEMENT_THEORY = SGP/SGP4

EPOCH          = 2025-12-03T09:06:56.750400
MEAN_MOTION    = 12.95879507
ECCENTRICITY   = .00256303
INCLINATION    = 90.2445
RA_OF_ASC_NODE = 7.5643
ARG_OF_PERICENTER = 330.8742
MEAN_ANOMALY   = 29.0947

EPHEMERIS_TYPE = 0
CLASSIFICATION_TYPE = U
NORAD_CAT_ID   = 270299
ELEMENT_SET_NO = 999
REV_AT_EPOCH   = 26248
BSTAR          = .20967744E-2
MEAN_MOTION_DOT = .603E-5
MEAN_MOTION_DDOT = 0

CCSDS_OMM_VERS = 2.0
CREATION_DATE  = 
ORIGINATOR     = 

OBJECT_NAME    = UNKNOWN
OBJECT_ID      = 
CENTER_NAME    = EARTH
REF_FRAME      = TEME
TIME_SYSTEM    = UTC
MEAN_ELEMENT_THEORY = SGP/SGP4

EPOCH          = 2025-12-07T18:56:47.344704
MEAN_MOTION    = 14.51227267
ECCENTRICITY   = .00302205
INCLINATION    = 98.8487
RA_OF_ASC_NODE = 3.0131
ARG_OF_PERICENTER = 245.1403
MEAN_ANOMALY   = 114.6648

EPHEMERIS_TYPE = 0
CLASSIFICATION_TYPE = U
NORAD_CAT_ID   = 270300
ELEMENT_SET_NO = 999
REV_AT_EPOCH   = 7921
BSTAR          = .26846534E-2
MEAN_MOTION_DOT = .10697E-3
MEAN_MOTION_DDOT = 0

CCSDS_OMM_VERS = 2.0
CREATION_DATE  = 
ORIGINATOR     = 

OBJECT_NAME    = UNKNOWN
OBJECT_ID      = 
CENTER_NAME    = EARTH
REF_FRAME      = TEME
TIME_SYSTEM    = UTC
MEAN_ELEMENT_THEORY = SGP/SGP4

EPOCH          = 2025-12-07T19:12:09.789120
MEAN_MOTION    = 14.48035485
ECCENTRICITY   = .00150346
INCLINATION    = 98.9314
RA_OF_ASC_NODE = 359.0400
ARG_OF_PERICENTER = 88.2171
MEAN_ANOMALY   = 272.0742

EPHEMERIS_TYPE = 0
CLASSIFICATION_TYPE = U
NORAD_CAT_ID   = 270302
ELEMENT_SET_NO = 999
REV_AT_EPOCH   = 24598
BSTAR          = .29931265E-2
MEAN_MOTION_DOT = .11108E-3
MEAN_MOTION_DDOT = 0

CCSDS_OMM_VERS = 2.0
CREATION_DATE  = 
ORIGINATOR     = 

OBJECT_NAME    = UNKNOWN
OBJECT_ID      = 
CENTER_NAME    = EARTH
REF_FRAME      = TEME
TIME_SYSTEM    = UTC
MEAN_ELEMENT_THEORY = SGP/SGP4

EPOCH          = 2025-12-09T07:30:31.861728
MEAN_MOTION    = 15.16619542
ECCENTRICITY   = .0014396
INCLINATION    = 98.6178
RA_OF_ASC_NODE = 1.7273
ARG_OF_PERICENTER = 132.2762
MEAN_ANOMALY   = 227.9691

EPHEMERIS_TYPE = 0
CLASSIFICATION_TYPE = U
NORAD_CAT_ID   = 270303
ELEMENT_SET_NO = 999
REV_AT_EPOCH   = 24932
BSTAR          = .73680531E-2
MEAN_MOTION_DOT = .147135E-2
MEAN_MOTION_DDOT = 0

CCSDS_OMM_VERS = 2.0
CREATION_DATE  = 
ORIGINATOR     = 

OBJECT_NAME    = UNKNOWN
OBJECT_ID      = 
CENTER_NAME    = EARTH
REF_FRAME      = TEME
TIME_SYSTEM    = UTC
MEAN_ELEMENT_THEORY = SGP/SGP4

EPOCH          = 2025-12-07T13:14:31.796160
MEAN_MOTION    = 14.99578542
ECCENTRICITY   = .00063629
INCLINATION    = 98.6857
RA_OF_ASC_NODE = 355.4330
ARG_OF_PERICENTER = 140.3624
MEAN_ANOMALY   = 219.8063

EPHEMERIS_TYPE = 0
CLASSIFICATION_TYPE = U
NORAD_CAT_ID   = 270304
ELEMENT_SET_NO = 999
REV_AT_EPOCH   = 24746
BSTAR          = .84940937E-2
MEAN_MOTION_DOT = .10599E-2
MEAN_MOTION_DDOT = 0

